LEMUR-2-CELIJO-SB-PK    
1 66781U 25276DW  26176.44172371  .00007560  00000+0  61077-3 0  9992
2 66781  97.5235 246.9482 0008235 112.6941 247.5154 15.00068184 23868
LEMUR-2-FINNIAN         
1 66782U 25276DX  26176.48319730  .00004970  00000+0  39918-3 0  9990
2 66782  97.5315 247.2128 0008637  65.1093 295.1028 15.00456880 21248
LEMUR-2-STARLIGHT       
1 66783U 25276DY  26176.44695580  .00007814  00000+0  64575-3 0  9994
2 66783  97.5246 246.8036 0014757 104.5226 255.7636 14.99124910 31433
LEMUR-2-TARTIFLETTE     
1 66784U 25276DZ  26176.44531045  .00006428  00000+0  53206-3 0  9999
2 66784  97.5250 246.8095 0013720 111.5084 248.7604 14.99138893 31435
LEMUR-2-VUKASIN         
1 66785U 25276EA  26176.43182049  .00001511  00000+0  12471-3 0  9992
2 66785  97.5298 247.1137 0005448 103.8421 256.3409 15.00421204 31382
LEMUR-2-HOTSPUR-TOM     
1 66786U 25276EB  26176.17144154  .00006418  00000+0  53249-3 0  9998
2 66786  97.5247 246.5245 0014882 104.5286 255.7590 14.99035144 31328
LEMUR-2-MYRA            
1 66787U 25276EC  26176.46387241  .00008687  00000+0  69405-3 0  9998
2 66787  97.5220 247.0733 0017544 114.7288 245.5765 15.00353692 31450
LEMUR-2 FIKRETDENGIZ    
1 67363U 26004A   26176.53805749  .00004625  00000+0  50452-3 0  9995
2 67363  97.8016 174.9677 0010500 109.5938 250.6414 14.88380388 24526
TWILIGHT-1 OBJECT B     
1 67364U 26004B   26176.49881617  .00001813  00000+0  20467-3 0  9998
2 67364  97.8064 174.9406 0010241 100.9909 259.2460 14.87728978 24521
LEMUR-2-MARIO-SOUSA     
1 67365U 26004C   26176.52059941  .00004880  00000+0  52945-3 0  9993
2 67365  97.7985 174.9462 0010078 110.5154 249.7145 14.88574768 24534
LEMUR-2-SONNENBLUME     
1 67367U 26004E   26176.52015573  .00002951  00000+0  32434-3 0  9996
2 67367  97.7984 174.9269 0009621 111.9975 248.2265 14.88355295 24537
LEMUR-2-WOBLER          
1 67368U 26004F   26176.51248686  .00003795  00000+0  41317-3 0  9996
2 67368  97.8039 175.0501 0009950 102.9849 257.2479 14.88568845 24530
LEMUR-2-GRAM-E-SUE      
1 67370U 26004H   26176.50343718  .00002294  00000+0  25260-3 0  9992
2 67370  97.7976 174.9264 0008667 113.0892 247.1240 14.88504804 24530
LEMUR-2-KATIE           
1 67387U 26004AA  26176.54903144  .00004077  00000+0  42736-3 0  9997
2 67387  97.8034 175.4576 0004758  75.8017 284.3729 14.90096217 24551
LEMUR-2-HCS-BAZUS       
1 67388U 26004AB  26176.48074873  .00006560  00000+0  68315-3 0  9999
2 67388  97.8021 175.3703 0004263  74.7155 285.4534 14.90144389 24540
