OBJECT_NAME,OBJECT_ID,EPOCH,MEAN_MOTION,ECCENTRICITY,INCLINATION,RA_OF_ASC_NODE,ARG_OF_PERICENTER,MEAN_ANOMALY,EPHEMERIS_TYPE,CLASSIFICATION_TYPE,NORAD_CAT_ID,ELEMENT_SET_NO,REV_AT_EPOCH,BSTAR,MEAN_MOTION_DOT,MEAN_MOTION_DDOT
LEMUR-2-CELIJO-SB-PK,2025-276DW,2026-06-25T10:36:04.928544,15.00068184,.00082351,97.5235,246.9482,112.6941,247.5154,0,U,66781,999,2386,.61076629E-3,.756E-4,0
LEMUR-2-FINNIAN,2025-276DX,2026-06-25T11:35:48.246720,15.00456880,.00086372,97.5315,247.2128,65.1093,295.1028,0,U,66782,999,2124,.39917809E-3,.497E-4,0
LEMUR-2-STARLIGHT,2025-276DY,2026-06-25T10:43:36.981120,14.99124910,.00147576,97.5246,246.8036,104.5226,255.7636,0,U,66783,999,3143,.64574833E-3,.7814E-4,0
LEMUR-2-TARTIFLETTE,2025-276DZ,2026-06-25T10:41:14.822880,14.99138893,.00137204,97.5250,246.8095,111.5084,248.7604,0,U,66784,999,3143,.53205719E-3,.6428E-4,0
LEMUR-2-VUKASIN,2025-276EA,2026-06-25T10:21:49.290336,15.00421204,.00054485,97.5298,247.1137,103.8421,256.3409,0,U,66785,999,3138,.12471434E-3,.1511E-4,0
LEMUR-2-HOTSPUR-TOM,2025-276EB,2026-06-25T04:06:52.549056,14.99035144,.00148827,97.5247,246.5245,104.5286,255.7590,0,U,66786,999,3132,.53248844E-3,.6418E-4,0
LEMUR-2-MYRA,2025-276EC,2026-06-25T11:07:58.576224,15.00353692,.0017544,97.5220,247.0733,114.7288,245.5765,0,U,66787,999,3145,.69404887E-3,.8687E-4,0
LEMUR-2 FIKRETDENGIZ,2026-004A,2026-06-25T12:54:48.167136,14.88380388,.00105,97.8016,174.9677,109.5938,250.6414,0,U,67363,999,2452,.50452349E-3,.4625E-4,0
TWILIGHT-1 OBJECT B,2026-004B,2026-06-25T11:58:17.717088,14.87728978,.0010241,97.8064,174.9406,100.9909,259.2460,0,U,67364,999,2452,.20467379E-3,.1813E-4,0
LEMUR-2-MARIO-SOUSA,2026-004C,2026-06-25T12:29:39.789024,14.88574768,.00100787,97.7985,174.9462,110.5154,249.7145,0,U,67365,999,2453,.52944892E-3,.488E-4,0
LEMUR-2-SONNENBLUME,2026-004E,2026-06-25T12:29:01.455072,14.88355295,.00096217,97.7984,174.9269,111.9975,248.2265,0,U,67367,999,2453,.32433733E-3,.2951E-4,0
LEMUR-2-WOBLER,2026-004F,2026-06-25T12:17:58.864704,14.88568845,.00099503,97.8039,175.0501,102.9849,257.2479,0,U,67368,999,2453,.41316665E-3,.3795E-4,0
LEMUR-2-GRAM-E-SUE,2026-004H,2026-06-25T12:04:56.972352,14.88504804,.00086673,97.7976,174.9264,113.0892,247.1240,0,U,67370,999,2453,.25260317E-3,.2294E-4,0
LEMUR-2-KATIE,2026-004AA,2026-06-25T13:10:36.316416,14.90096217,.00047589,97.8034,175.4576,75.8017,284.3729,0,U,67387,999,2455,.42735548E-3,.4077E-4,0
LEMUR-2-HCS-BAZUS,2026-004AB,2026-06-25T11:32:16.690272,14.90144389,.00042632,97.8021,175.3703,74.7155,285.4534,0,U,67388,999,2454,.6831493E-3,.656E-4,0
